OBJECT_NAME,OBJECT_ID,EPOCH,MEAN_MOTION,ECCENTRICITY,INCLINATION,RA_OF_ASC_NODE,ARG_OF_PERICENTER,MEAN_ANOMALY,EPHEMERIS_TYPE,CLASSIFICATION_TYPE,NORAD_CAT_ID,ELEMENT_SET_NO,REV_AT_EPOCH,BSTAR,MEAN_MOTION_DOT,MEAN_MOTION_DDOT
FORGESTAR-1,2025-135U,2026-02-27T06:39:07.299648,15.22396886,.0001466,97.4552,174.6972,142.6051,217.5287,0,U,64546,999,3817,.42833776E-3,.983E-4,0
TRANSPORTER-14 OBJECT V,2025-135V,2026-02-27T06:50:40.848000,15.23106522,.00006449,97.4489,174.6464,147.9504,212.1772,0,U,64547,999,3818,.46410903E-3,.10884E-3,0
GHGSAT-C13,2025-135W,2026-02-27T06:59:26.570400,15.20141883,.00025162,97.4637,174.6339,114.0952,246.0546,0,U,64548,999,3815,.18934158E-3,.4026E-4,0
ROADS 2,2025-135X,2026-02-27T06:35:06.521856,15.22252046,.00026412,97.4646,175.0011,117.8200,242.3304,0,U,64549,999,3818,.40618643E-3,.9278E-4,0
BRO-18,2025-135Y,2026-02-27T06:54:24.701760,15.20845174,.00004057,97.4494,174.3515,136.9895,223.1372,0,U,64550,999,3816,.30060164E-3,.6568E-4,0
SATMAR,2025-135Z,2026-02-27T06:40:14.476512,15.23061458,.00001336,97.4482,174.6447,153.3665,206.7579,0,U,64551,999,3818,.47832838E-3,.11205E-3,0
HYPERFIELD-1B,2025-135AA,2026-02-27T06:11:25.505376,15.21264378,.00009829,97.4531,174.4938,57.0116,303.1214,0,U,64552,999,3816,.28898215E-3,.6389E-4,0
CONNECTA IOT-12,2025-135AB,2026-02-27T06:30:04.713696,15.21068455,.00023906,97.4607,174.7390,85.4820,274.6689,0,U,64553,999,3816,.24984576E-3,.5482E-4,0
TRANSPORTER-14 OBJECT AC,2025-135AC,2026-02-27T06:25:28.663968,15.26266079,.0000872,97.4512,175.2129,328.1962,31.9223,0,U,64554,999,3821,.92480577E-3,.23951E-3,0
CONNECTA IOT-10,2025-135AD,2026-02-27T07:30:35.489664,15.20395264,.00012777,97.4549,174.4816,54.1448,305.9905,0,U,64555,999,3816,.21632358E-3,.4644E-4,0
TRANSPORTER-14 OBJECT AE,2025-135AE,2026-02-27T06:27:48.095424,15.23727427,.00028192,97.4605,175.1916,95.6257,264.5301,0,U,64556,999,3819,.51263209E-3,.12256E-3,0
CONNECTA IOT-11,2025-135AF,2026-02-27T06:44:07.935360,15.20832671,.00022498,97.4580,174.6331,63.9642,296.1825,0,U,64557,999,3816,.23767656E-3,.5176E-4,0
QUICK3,2025-135AG,2026-02-27T06:27:49.198752,15.24180958,.00059404,97.4605,174.9041,178.4801,181.6456,0,U,64558,999,3809,.74525455E-3,.18113E-3,0
PADRE,2025-135AH,2026-02-27T05:55:04.510272,14.92050037,.000065,97.7584,173.4593,241.3451,118.7702,0,U,64559,999,3745,.24960417E-3,.2477E-4,0
TRANSPORTER-14 OBJECT AJ,2025-135AJ,2026-02-27T05:55:58.522368,14.94473781,.00005508,97.7596,173.9782,148.6920,211.4334,0,U,64560,999,3748,.58619668E-3,.627E-4,0
LEMUR-2-KRISH,2025-135AK,2026-02-27T05:18:07.615008,14.94929695,.00013035,97.7610,174.0448,108.8441,251.2921,0,U,64561,999,3748,.67463832E-3,.731E-4,0
HUBBLE 6,2025-135AL,2026-02-27T05:20:48.080544,14.92926766,.00013669,97.7587,173.7457,127.3700,232.7644,0,U,64562,999,3746,.22232971E-3,.225E-4,0
AE3VA,2025-135AM,2026-02-27T07:07:49.850400,14.95589016,.00018382,97.7545,174.0877,269.3655,90.7355,0,U,64563,999,3750,.75111826E-3,.8285E-4,0
TIME FLIES,2025-135AN,2026-02-27T06:07:51.757824,14.94074294,.00007612,97.7573,173.8924,267.6816,92.4317,0,U,64564,999,3748,.46303324E-3,.489E-4,0
LEMUR-2-HUBBLE-4,2025-135AP,2026-02-27T07:08:18.781440,14.92837524,.00012886,97.7565,173.6412,308.5353,51.5750,0,U,64565,999,3747,.18356927E-3,.1844E-4,0
ARVAKER-3,2025-135AQ,2026-02-27T06:30:38.223936,14.93050720,.00008218,97.7591,173.7535,3.4010,356.7215,0,U,64566,999,3747,.38975057E-3,.4001E-4,0
ARVAKER-2,2025-135AR,2026-02-27T06:38:13.182144,14.92998553,.00008911,97.7604,173.7826,32.8300,327.2974,0,U,64567,999,3747,.3568658E-3,.3653E-4,0
IRIDE-MS2-HEO-3,2025-135AS,2026-02-27T07:08:03.289920,14.93346894,.00016919,97.7591,173.8700,345.2629,14.8541,0,U,64568,999,3748,.2270278E-3,.2324E-4,0
IRIDE-MS2-HEO-2,2025-135AT,2026-02-27T07:30:23.875776,14.93145093,.00019162,97.7613,173.9129,42.3215,317.8152,0,U,64569,999,3748,.2646295E-3,.2704E-4,0
ICEYE-X54,2025-135AU,2026-02-27T06:23:16.351872,14.93783790,.00012825,97.7587,173.9084,354.3679,5.7526,0,U,64570,999,3748,.47449824E-3,.4975E-4,0
IRIDE-MS2-HEO-5,2025-135AV,2026-02-27T06:49:19.243200,14.93421992,.00020345,97.7589,173.8725,348.7122,11.4052,0,U,64571,999,3748,.23692021E-3,.2432E-4,0
ICEYE-X52,2025-135AW,2026-02-27T05:57:02.505024,14.93057203,.00015618,97.7607,173.8323,16.1519,343.9750,0,U,64572,999,3747,.26945558E-3,.2749E-4,0
MUSAT-3ALPHA,2025-135AX,2026-02-27T06:06:15.904800,14.93521613,.00017884,97.7504,173.7318,353.8522,6.2676,0,U,64573,999,3747,.22639267E-3,.2328E-4,0
ICEYE-X56,2025-135AY,2026-02-27T06:48:18.193824,14.94814860,.00016654,97.7612,174.2535,19.8178,340.3107,0,U,64574,999,3750,.42872834E-3,.4609E-4,0
ION SCV-018,2025-135AZ,2026-02-27T06:52:45.187104,14.94397350,.00113916,97.7641,174.4578,302.0387,57.9726,0,U,64575,999,3751,.11664014E-3,.1199E-4,0
