FORGESTAR-1             
1 64546U 25135U   26058.27716782  .00009830  00000+0  42834-3 0  9995
2 64546  97.4552 174.6972 0001466 142.6051 217.5287 15.22396886 38172
TRANSPORTER-14 OBJECT V 
1 64547U 25135V   26058.28519500  .00010884  00000+0  46411-3 0  9992
2 64547  97.4489 174.6464 0000644 147.9504 212.1772 15.23106522 38184
GHGSAT-C13              
1 64548U 25135W   26058.29127975  .00004026  00000+0  18934-3 0  9995
2 64548  97.4637 174.6339 0002516 114.0952 246.0546 15.20141883 38151
ROADS 2                 
1 64549U 25135X   26058.27438104  .00009278  00000+0  40619-3 0  9992
2 64549  97.4646 175.0011 0002641 117.8200 242.3304 15.22252046 38180
BRO-18                  
1 64550U 25135Y   26058.28778590  .00006568  00000+0  30060-3 0  9999
2 64550  97.4494 174.3515 0000405 136.9895 223.1372 15.20845174 38160
SATMAR                  
1 64551U 25135Z   26058.27794533  .00011205  00000+0  47833-3 0  9994
2 64551  97.4482 174.6447 0000133 153.3665 206.7579 15.23061458 38187
HYPERFIELD-1B           
1 64552U 25135AA  26058.25793409  .00006389  00000+0  28898-3 0  9991
2 64552  97.4531 174.4938 0000982  57.0116 303.1214 15.21264378 38169
CONNECTA IOT-12         
1 64553U 25135AB  26058.27088789  .00005482  00000+0  24985-3 0  9998
2 64553  97.4607 174.7390 0002390  85.4820 274.6689 15.21068455 38167
TRANSPORTER-14 OBJECT AC
1 64554U 25135AC  26058.26769287  .00023951  00000+0  92481-3 0  9994
2 64554  97.4512 175.2129 0000872 328.1962  31.9223 15.26266079 38217
CONNECTA IOT-10         
1 64555U 25135AD  26058.31291076  .00004644  00000+0  21632-3 0  9995
2 64555  97.4549 174.4816 0001277  54.1448 305.9905 15.20395264 38165
TRANSPORTER-14 OBJECT AE
1 64556U 25135AE  26058.26930666  .00012256  00000+0  51263-3 0  9996
2 64556  97.4605 175.1916 0002819  95.6257 264.5301 15.23727427 38195
CONNECTA IOT-11         
1 64557U 25135AF  26058.28064740  .00005176  00000+0  23768-3 0  9992
2 64557  97.4580 174.6331 0002249  63.9642 296.1825 15.20832671 38160
QUICK3                  
1 64558U 25135AG  26058.26931943  .00018113  00000+0  74525-3 0  9991
2 64558  97.4605 174.9041 0005940 178.4801 181.6456 15.24180958 38098
PADRE                   
1 64559U 25135AH  26058.24657998  .00002477  00000+0  24960-3 0  9999
2 64559  97.7584 173.4593 0000650 241.3451 118.7702 14.92050037 37450
TRANSPORTER-14 OBJECT AJ
1 64560U 25135AJ  26058.24720512  .00006270  00000+0  58620-3 0  9999
2 64560  97.7596 173.9782 0000550 148.6920 211.4334 14.94473781 37481
LEMUR-2-KRISH           
1 64561U 25135AK  26058.22092147  .00007310  00000+0  67464-3 0  9996
2 64561  97.7610 174.0448 0001303 108.8441 251.2921 14.94929695 37487
HUBBLE 6                
1 64562U 25135AL  26058.22277871  .00002250  00000+0  22233-3 0  9999
2 64562  97.7587 173.7457 0001366 127.3700 232.7644 14.92926766 37468
AE3VA                   
1 64563U 25135AM  26058.29710475  .00008285  00000+0  75112-3 0  9997
2 64563  97.7545 174.0877 0001838 269.3655  90.7355 14.95589016 37505
TIME FLIES              
1 64564U 25135AN  26058.25546016  .00004890  00000+0  46303-3 0  9990
2 64564  97.7573 173.8924 0000761 267.6816  92.4317 14.94074294 37481
LEMUR-2-HUBBLE-4        
1 64565U 25135AP  26058.29743960  .00001844  00000+0  18357-3 0  9996
2 64565  97.7565 173.6412 0001288 308.5353  51.5750 14.92837524 37476
ARVAKER-3               
1 64566U 25135AQ  26058.27127574  .00004001  00000+0  38975-3 0  9998
2 64566  97.7591 173.7535 0000821   3.4010 356.7215 14.93050720 37478
ARVAKER-2               
1 64567U 25135AR  26058.27654146  .00003653  00000+0  35687-3 0  9998
2 64567  97.7604 173.7826 0000891  32.8300 327.2974 14.92998553 37471
IRIDE-MS2-HEO-3         
1 64568U 25135AS  26058.29726030  .00002324  00000+0  22703-3 0  9992
2 64568  97.7591 173.8700 0001691 345.2629  14.8541 14.93346894 37489
IRIDE-MS2-HEO-2         
1 64569U 25135AT  26058.31277634  .00002704  00000+0  26463-3 0  9996
2 64569  97.7613 173.9129 0001916  42.3215 317.8152 14.93145093 37489
ICEYE-X54               
1 64570U 25135AU  26058.26616148  .00004975  00000+0  47450-3 0  9990
2 64570  97.7587 173.9084 0001282 354.3679   5.7526 14.93783790 37487
IRIDE-MS2-HEO-5         
1 64571U 25135AV  26058.28425050  .00002432  00000+0  23692-3 0  9991
2 64571  97.7589 173.8725 0002034 348.7122  11.4052 14.93421992 37488
ICEYE-X52               
1 64572U 25135AW  26058.24794566  .00002749  00000+0  26946-3 0  9995
2 64572  97.7607 173.8323 0001561  16.1519 343.9750 14.93057203 37471
MUSAT-3ALPHA            
1 64573U 25135AX  26058.25435075  .00002328  00000+0  22639-3 0  9992
2 64573  97.7504 173.7318 0001788 353.8522   6.2676 14.93521613 37474
ICEYE-X56               
1 64574U 25135AY  26058.28354391  .00004609  00000+0  42873-3 0  9993
2 64574  97.7612 174.2535 0001665  19.8178 340.3107 14.94814860 37507
ION SCV-018             
1 64575U 25135AZ  26058.28663411  .00001199  00000+0  11664-3 0  9995
2 64575  97.7641 174.4578 0011391 302.0387  57.9726 14.94397350 37514
